#aV2013  2  6  0  0  0.00000000     288 DD+AD WGS84 FIT  NGA
## 1726 259200.00000000   300.00000000 56329 0.0000000000000
+   31     1  2  3  4  5  6  7  8  9 10 11 12 13 14 15 16 17
+         18 19 20 21 22 23 24 25 26 28 29 30 31 32  0  0  0
+          0  0  0  0  0  0  0  0  0  0  0  0  0  0  0  0  0
+          0  0  0  0  0  0  0  0  0  0  0  0  0  0  0  0  0
+          0  0  0  0  0  0  0  0  0  0  0  0  0  0  0  0  0
++         2  2  2  2  2  2  2  2  2  2  2  2  2  2  2  2  2
++         2  2  2  2  2  2  2  2  2  2  2  2  2  2  2  0  0
++         0  0  0  0  0  0  0  0  0  0  0  0  0  0  0  0  0
++         0  0  0  0  0  0  0  0  0  0  0  0  0  0  0  0  0
++         0  0  0  0  0  0  0  0  0  0  0  0  0  0  0  0  0
%c cc cc ccc ccc cccc cccc cccc cccc ccccc ccccc ccccc ccccc
%c cc cc ccc ccc cccc cccc cccc cccc ccccc ccccc ccccc ccccc
%f  0.0000000  0.000000000  0.00000000000  0.000000000000000
%f  0.0000000  0.000000000  0.00000000000  0.000000000000000
%i    0    0    0    0      0      0      0      0         0
%i    0    0    0    0      0      0      0      0         0
/*      NGA, ST. LOUIS,MO.                                  
/*   EPHEMERIS COMPUTED FROM  1 DAYS OF DATA
/*   EPOCHA SMOOTHER  
/* CCCCCCCCCCCCCCCCCCCCCCCCCCCCCCCCCCCCCCCCCCCCCCCCCCCCCCCCC
*  2013  2  6 19 35  0.00000000                                                 
P  1 -13582.959876  13660.374089  18233.604100     -1.330066                    
V  1   -219.703716 -23277.281774  17321.239025      0.025985                    
P  2  13932.145930  11186.758124 -19622.426788    417.463175                    
V  2  -2167.136506  25169.032254  12182.539175      0.015463                    
P  3 -24883.953169  -8489.347505   4044.581440    164.946449                    
V  3  -3693.822607  -5596.782895 -30434.363104      0.050541                    
P  4   7638.861308  22364.924145 -12109.457226    126.947769                    
V  4  -3906.120801  14908.217470  25949.550635      0.111045                    
P  5  22535.153670     49.769135 -14197.481676   -382.469602                    
V  5 -14994.844399  10133.246338 -23677.386986     -0.018682                    
P  6 -23153.465073 -13394.957575   -109.708030    360.627788                    
V  6   1795.218754  -2620.041946 -31073.326035     -0.142988                    
P  7  -6455.801178  24713.814042  -6675.231434    177.643883                    
V  7  -1795.140776  -8749.592323 -30743.254110      0.043553                    
P  8   -978.319522  25738.252592   5125.014674      4.499373                    
V  8  -3084.290381   6033.482618 -32078.758969      0.001964                    
P  9  14011.152747   4912.945713  21464.210467    218.897998                    
V  9  -1939.602489  28460.247248  -5172.812649      0.025877                    
P 10   8589.484116  13280.175235 -21647.468283    -68.949897                    
V 10 -24202.670489  11628.333719  -2089.072517     -0.013170                    
P 11 -15231.912662   6855.218747  20197.638896   -350.952858                    
V 11  -6914.865225 -26095.641445   3849.810788     -0.037579                    
P 12  23797.946438 -11523.957491   -639.558492    116.447405                    
V 12   1684.566434   1750.606500  32352.490261      0.020555                    
P 13  -7558.594793  12843.819084 -22116.648223    146.768348                    
V 13 -21651.604901 -17262.348518  -2751.337464     -0.028766                    
P 14 -10988.628509 -20107.732902  13744.308005    220.277121                    
V 14  14566.491690   9010.891737  25048.870224      0.002972                    
P 15  21770.740197    394.314843  15357.753870   -107.524144                    
V 15  15375.418940  12183.177381 -21823.046099     -0.012325                    
P 16 -21851.491496  -1449.968996 -15266.663818   -252.253825                    
V 16  17026.455876  -8962.645384 -23207.403361     -0.001829                    
P 17  13065.697391  19852.831356  12309.958826     52.299301                    
V 17 -13525.611802  -7235.661785  26236.273950     -0.037682                    
P 18   8306.431663 -18585.786564  17265.862246    238.092693                    
V 18  20252.058064  -7402.428986 -18471.925029      0.018852                    
P 19 -22168.581726  -5328.759169  13881.780376   -346.393381                    
V 19 -12572.405408 -12453.913317 -24315.262636     -0.032377                    
P 20 -22432.830532  14072.919819  -1600.867291     83.042793                    
V 20  -3518.544840  -2483.939979  30974.356815      0.015579                    
P 21   3201.279006 -25922.712024  -2189.470976   -279.092885                    
V 21   4019.177145   3725.340539 -31284.088403     -0.022572                    
P 22  -4505.131096 -15586.142080  21202.759640    157.743846                    
V 22  24112.628286 -11374.443258  -3400.515797      0.009038                    
P 23 -16371.916172   5989.018485 -20085.172444    116.467496                    
V 23 -20612.153453 -15108.959590  11882.996276     -0.037028                    
P 24  14484.927891  -9927.263002  19916.507709     -0.613964                    
V 24   -127.629481  25333.126455  12747.833095     -0.006397                    
P 25  16885.054602 -17166.688408 -11147.132464     68.289001                    
V 25  13569.174405  -4460.869488  27595.057638      0.028837                    
P 26  22455.395503  13100.279163   5641.473425   -110.926440                    
V 26   4965.354481   6447.400336 -30889.765945      0.139675                    
P 28   -332.727041  15993.506263  21752.151462    230.299072                    
V 28 -24274.581105   9965.217567  -8100.360198      0.034637                    
P 29   7304.817527 -13296.114882 -21748.461456    405.325120                    
V 29  22503.704281  16201.643278  -2301.633443      0.036675                    
P 30 -13881.775212  -8716.255400 -21245.553835   -232.458288                    
V 30  21733.644511 -14593.553304  -8373.919228      0.094274                    
P 31  -8715.848137 -19545.238822 -15361.786141    301.230826                    
V 31   3411.238250 -19697.186467  23121.974790      0.017807                    
P 32 -25098.869347   5884.232477   5278.669003   -533.146173                    
V 32   4870.397794  -5696.149769  30865.495768     -0.034712                    
EOF
